[{"OBJECT_NAME":"STARLINK-4636","OBJECT_ID":"2022-107AH","EPOCH":"2026-03-09T21:32:58.902144","MEAN_MOTION":15.11900784,"ECCENTRICITY":0.00053969,"INCLINATION":53.213,"RA_OF_ASC_NODE":252.5823,"ARG_OF_PERICENTER":143.7657,"MEAN_ANOMALY":216.3703,"EPHEMERIS_TYPE":0,"CLASSIFICATION_TYPE":"U","NORAD_CAT_ID":53731,"ELEMENT_SET_NO":999,"REV_AT_EPOCH":19462,"BSTAR":0.0016595438,"MEAN_MOTION_DOT":0.00028566,"MEAN_MOTION_DDOT":0},{"OBJECT_NAME":"FENGYUN 1C DEB","OBJECT_ID":"1999-025BZZ","EPOCH":"2026-03-09T13:05:44.544480","MEAN_MOTION":14.97363263,"ECCENTRICITY":0.00745573,"INCLINATION":99.0712,"RA_OF_ASC_NODE":279.0573,"ARG_OF_PERICENTER":15.484,"MEAN_ANOMALY":344.8634,"EPHEMERIS_TYPE":0,"CLASSIFICATION_TYPE":"U","NORAD_CAT_ID":31619,"ELEMENT_SET_NO":999,"REV_AT_EPOCH":64782,"BSTAR":0.0036839182,"MEAN_MOTION_DOT":0.00045478,"MEAN_MOTION_DDOT":0}]
